[{"OBJECT_NAME":"STARLINK-6187","OBJECT_ID":"2023-065AV","EPOCH":"2026-03-09T22:00:01.999584","MEAN_MOTION":15.1466747,"ECCENTRICITY":0.00019215,"INCLINATION":42.9997,"RA_OF_ASC_NODE":221.5467,"ARG_OF_PERICENTER":290.264,"MEAN_ANOMALY":144.0624,"EPHEMERIS_TYPE":0,"CLASSIFICATION_TYPE":"U","NORAD_CAT_ID":56546,"ELEMENT_SET_NO":999,"REV_AT_EPOCH":547,"BSTAR":0.0065491157,"MEAN_MOTION_DOT":0.00125281,"MEAN_MOTION_DDOT":0},{"OBJECT_NAME":"UMKA 1 (RS40S)","OBJECT_ID":"2023-091G","EPOCH":"2026-03-09T23:12:49.582656","MEAN_MOTION":15.19603279,"ECCENTRICITY":0.00146694,"INCLINATION":97.5176,"RA_OF_ASC_NODE":128.0722,"ARG_OF_PERICENTER":105.2249,"MEAN_ANOMALY":255.0609,"EPHEMERIS_TYPE":0,"CLASSIFICATION_TYPE":"U","NORAD_CAT_ID":57172,"ELEMENT_SET_NO":999,"REV_AT_EPOCH":14893,"BSTAR":0.00040263453,"MEAN_MOTION_DOT":8.531e-5,"MEAN_MOTION_DDOT":0}]
